start=new Date('2023-03-12T00:00:00.000Z').valueOf();
sats=[{"OBJECT_ID":"2022-025K","OBJECT_NAME":"STARLINK-3696","EPHEMERIS_TYPE":"0","GP_ID":"227858409","CLASSIFICATION_TYPE":"U","REV_AT_EPOCH":"5601","CENTER_NAME":"EARTH","SITE":"AFETR","COUNTRY_CODE":"US","REF_FRAME":"TEME","EPOCH":"2023-03-11T12:32:42.549216","TLE_LINE1":"1 51965U 22025K   23070.52271469  .00009574  00000-0  69002-3 0  9990","TLE_LINE2":"2 51965  53.2144 261.2233 0000823  99.5869 260.5215 15.04775408 56019","MEAN_MOTION_DDOT":"0.0000000000000","PERIAPSIS":"551.627","PERIOD":"95.695","MEAN_MOTION":"15.04775408","LAUNCH_DATE":"2022-03-09","INCLINATION":"53.2144","BSTAR":"0.00069002000000","OBJECT_TYPE":"PAYLOAD","ECCENTRICITY":"0.00008230","RA_OF_ASC_NODE":"261.2233","SEMIMAJOR_AXIS":"6930.332","NORAD_CAT_ID":"51965","MEAN_MOTION_DOT":"0.00009574","TIME_SYSTEM":"UTC","MEAN_ELEMENT_THEORY":"SGP4","DECAY_DATE":null,"RCS_SIZE":"LARGE","APOAPSIS":"552.768","MEAN_ANOMALY":"260.5215","FILE":"3857581","ELEMENT_SET_NO":"999","ARG_OF_PERICENTER":"99.5869"},{"CLASSIFICATION_TYPE":"U","CENTER_NAME":"EARTH","REV_AT_EPOCH":"5607","SITE":"AFETR","EPHEMERIS_TYPE":"0","OBJECT_NAME":"STARLINK-3699","OBJECT_ID":"2022-025L","GP_ID":"227890721","TLE_LINE1":"1 51966U 22025L   23070.90666269  .00003491  00000-0  25847-3 0  9990","TLE_LINE2":"2 51966  53.2082 259.5548 0000665  89.8126 270.2940 15.05598765 56071","COUNTRY_CODE":"US","REF_FRAME":"TEME","EPOCH":"2023-03-11T21:45:35.656416","BSTAR":"0.00025847000000","INCLINATION":"53.2082","ECCENTRICITY":"0.00006650","OBJECT_TYPE":"PAYLOAD","PERIAPSIS":"549.210","MEAN_MOTION_DDOT":"0.0000000000000","MEAN_MOTION":"15.05598765","PERIOD":"95.643","LAUNCH_DATE":"2022-03-09","RCS_SIZE":"LARGE","DECAY_DATE":null,"MEAN_ANOMALY":"270.2940","FILE":"3857847","APOAPSIS":"550.131","ELEMENT_SET_NO":"999","ARG_OF_PERICENTER":"89.8126","RA_OF_ASC_NODE":"259.5548","MEAN_MOTION_DOT":"0.00003491","TIME_SYSTEM":"UTC","NORAD_CAT_ID":"51966","SEMIMAJOR_AXIS":"6927.805","MEAN_ELEMENT_THEORY":"SGP4"},{"COUNTRY_CODE":"US","REF_FRAME":"TEME","EPOCH":"2023-03-11T22:00:00.999936","TLE_LINE1":"1 51967U 22025M   23070.91667824  .00100181  00000-0  72034-3 0  9994","TLE_LINE2":"2 51967  53.2016 160.6403 0002906  22.1197  68.4509 15.72848442  1307","OBJECT_ID":"2022-025M","OBJECT_NAME":"STARLINK-3695","EPHEMERIS_TYPE":"0","GP_ID":"227889469","CLASSIFICATION_TYPE":"U","REV_AT_EPOCH":"130","CENTER_NAME":"EARTH","SITE":"AFETR","RA_OF_ASC_NODE":"160.6403","SEMIMAJOR_AXIS":"6728.898","MEAN_MOTION_DOT":"0.00100181","NORAD_CAT_ID":"51967","TIME_SYSTEM":"UTC","MEAN_ELEMENT_THEORY":"SGP4","DECAY_DATE":null,"RCS_SIZE":"LARGE","APOAPSIS":"352.718","FILE":"3857847","MEAN_ANOMALY":"68.4509","ELEMENT_SET_NO":"999","ARG_OF_PERICENTER":"22.1197","MEAN_MOTION_DDOT":"0.0000000000000","PERIAPSIS":"348.807","PERIOD":"91.554","MEAN_MOTION":"15.72848442","LAUNCH_DATE":"2022-03-09","BSTAR":"0.00072034000000","INCLINATION":"53.2016","OBJECT_TYPE":"PAYLOAD","ECCENTRICITY":"0.00029060"},{"MEAN_MOTION_DDOT":"0.0000000000000","PERIAPSIS":"541.201","LAUNCH_DATE":"2022-03-09","PERIOD":"95.487","MEAN_MOTION":"15.08055400","BSTAR":"0.00172540000000","INCLINATION":"53.2060","OBJECT_TYPE":"PAYLOAD","ECCENTRICITY":"0.00013630","RA_OF_ASC_NODE":"259.4611","MEAN_ELEMENT_THEORY":"SGP4","SEMIMAJOR_AXIS":"6920.280","MEAN_MOTION_DOT":"0.00026694","NORAD_CAT_ID":"51968","TIME_SYSTEM":"UTC","DECAY_DATE":null,"RCS_SIZE":"LARGE","ARG_OF_PERICENTER":"94.5143","ELEMENT_SET_NO":"999","APOAPSIS":"543.088","MEAN_ANOMALY":"265.6005","FILE":"3857847","GP_ID":"227889719","OBJECT_ID":"2022-025N","OBJECT_NAME":"STARLINK-3681","EPHEMERIS_TYPE":"0","CLASSIFICATION_TYPE":"U","SITE":"AFETR","REV_AT_EPOCH":"5607","CENTER_NAME":"EARTH","REF_FRAME":"TEME","COUNTRY_CODE":"US","EPOCH":"2023-03-11T21:14:41.381952","TLE_LINE1":"1 51968U 22025N   23070.88520118  .00026694  00000-0  17254-2 0  9993","TLE_LINE2":"2 51968  53.2060 259.4611 0001363  94.5143 265.6005 15.08055400 56074"},{"REF_FRAME":"TEME","COUNTRY_CODE":"US","EPOCH":"2023-03-11T22:04:11.800128","TLE_LINE1":"1 51969U 22025P   23070.91958102  .00021407  00000-0  13888-2 0  9992","TLE_LINE2":"2 51969  53.1414 259.3200 0001266  77.2942 282.8191 15.08040424 56074","GP_ID":"227890970","OBJECT_ID":"2022-025P","EPHEMERIS_TYPE":"0","OBJECT_NAME":"STARLINK-3680","CLASSIFICATION_TYPE":"U","SITE":"AFETR","REV_AT_EPOCH":"5607","CENTER_NAME":"EARTH","RA_OF_ASC_NODE":"259.3200","MEAN_ELEMENT_THEORY":"SGP4","SEMIMAJOR_AXIS":"6920.325","NORAD_CAT_ID":"51969","MEAN_MOTION_DOT":"0.00021407","TIME_SYSTEM":"UTC","DECAY_DATE":null,"RCS_SIZE":"LARGE","ELEMENT_SET_NO":"999","ARG_OF_PERICENTER":"77.2942","APOAPSIS":"543.067","MEAN_ANOMALY":"282.8191","FILE":"3857847","MEAN_MOTION_DDOT":"0.0000000000000","PERIAPSIS":"541.314","LAUNCH_DATE":"2022-03-09","PERIOD":"95.488","MEAN_MOTION":"15.08040424","INCLINATION":"53.1414","BSTAR":"0.00138880000000","OBJECT_TYPE":"PAYLOAD","ECCENTRICITY":"0.00012660"},{"ECCENTRICITY":"0.00012150","OBJECT_TYPE":"PAYLOAD","INCLINATION":"53.2088","BSTAR":"0.00000110810000","MEAN_MOTION":"15.05591053","PERIOD":"95.644","LAUNCH_DATE":"2022-03-09","PERIAPSIS":"548.852","MEAN_MOTION_DDOT":"0.0000000000000","MEAN_ANOMALY":"279.9793","FILE":"3857847","APOAPSIS":"550.536","ELEMENT_SET_NO":"999","ARG_OF_PERICENTER":"80.1335","RCS_SIZE":"LARGE","DECAY_DATE":null,"MEAN_MOTION_DOT":"-0.00000263","TIME_SYSTEM":"UTC","NORAD_CAT_ID":"51970","SEMIMAJOR_AXIS":"6927.829","MEAN_ELEMENT_THEORY":"SGP4","RA_OF_ASC_NODE":"259.6028","CENTER_NAME":"EARTH","REV_AT_EPOCH":"5607","SITE":"AFETR","CLASSIFICATION_TYPE":"U","EPHEMERIS_TYPE":"0","OBJECT_NAME":"STARLINK-3677","OBJECT_ID":"2022-025Q","GP_ID":"227891221","TLE_LINE2":"2 51970  53.2088 259.6028 0001215  80.1335 279.9793 15.05591053 56079","TLE_LINE1":"1 51970U 22025Q   23070.89595455 -.00000263  00000-0  11081-5 0  9993","EPOCH":"2023-03-11T21:30:10.473120","COUNTRY_CODE":"US","REF_FRAME":"TEME"},{"PERIOD":"95.488","MEAN_MOTION":"15.08040886","LAUNCH_DATE":"2022-03-09","MEAN_MOTION_DDOT":"0.0000000000000","PERIAPSIS":"541.449","OBJECT_TYPE":"PAYLOAD","ECCENTRICITY":"0.00010690","BSTAR":"0.00002590800000","INCLINATION":"53.2025","SEMIMAJOR_AXIS":"6920.324","TIME_SYSTEM":"UTC","MEAN_MOTION_DOT":"0.00000118","NORAD_CAT_ID":"51971","MEAN_ELEMENT_THEORY":"SGP4","RA_OF_ASC_NODE":"259.4283","APOAPSIS":"542.929","FILE":"3857847","MEAN_ANOMALY":"278.0749","ELEMENT_SET_NO":"999","ARG_OF_PERICENTER":"82.0364","DECAY_DATE":null,"RCS_SIZE":"MEDIUM","OBJECT_ID":"2022-025R","OBJECT_NAME":"STARLINK-3669","EPHEMERIS_TYPE":"0","GP_ID":"227889969","REV_AT_EPOCH":"5607","CENTER_NAME":"EARTH","SITE":"AFETR","CLASSIFICATION_TYPE":"U","EPOCH":"2023-03-11T21:25:42.262464","COUNTRY_CODE":"US","REF_FRAME":"TEME","TLE_LINE2":"2 51971  53.2025 259.4283 0001069  82.0364 278.0749 15.08040886 56079","TLE_LINE1":"1 51971U 22025R   23070.89285026  .00000118  00000-0  25908-4 0  9994"},{"APOAPSIS":"550.564","FILE":"3857847","MEAN_ANOMALY":"263.1504","ELEMENT_SET_NO":"999","ARG_OF_PERICENTER":"96.9632","DECAY_DATE":null,"RCS_SIZE":"LARGE","SEMIMAJOR_AXIS":"6927.813","MEAN_MOTION_DOT":"0.00000070","TIME_SYSTEM":"UTC","NORAD_CAT_ID":"51972","MEAN_ELEMENT_THEORY":"SGP4","RA_OF_ASC_NODE":"260.4711","OBJECT_TYPE":"PAYLOAD","ECCENTRICITY":"0.00012780","INCLINATION":"53.2130","BSTAR":"0.00002395000000","PERIOD":"95.643","MEAN_MOTION":"15.05596100","LAUNCH_DATE":"2022-03-09","MEAN_MOTION_DDOT":"0.0000000000000","PERIAPSIS":"548.793","TLE_LINE2":"2 51972  53.2130 260.4711 0001278  96.9632 263.1504 15.05596100 56042","TLE_LINE1":"1 51972U 22025S   23070.68569160  .00000070  00000-0  23950-4 0  9998","EPOCH":"2023-03-11T16:27:23.754240","COUNTRY_CODE":"US","REF_FRAME":"TEME","REV_AT_EPOCH":"5604","CENTER_NAME":"EARTH","SITE":"AFETR","CLASSIFICATION_TYPE":"U","OBJECT_ID":"2022-025S","EPHEMERIS_TYPE":"0","OBJECT_NAME":"STARLINK-3671","GP_ID":"227890219"},{"REF_FRAME":"TEME","COUNTRY_CODE":"US","EPOCH":"2023-03-11T21:35:17.352096","TLE_LINE1":"1 51973U 22025T   23070.89950639  .00018488  00000-0  12841-2 0  9994","TLE_LINE2":"2 51973  53.2056 259.5885 0001070  85.0452 275.0661 15.05602335 56077","GP_ID":"227890471","OBJECT_NAME":"STARLINK-3679","EPHEMERIS_TYPE":"0","OBJECT_ID":"2022-025T","CLASSIFICATION_TYPE":"U","SITE":"AFETR","CENTER_NAME":"EARTH","REV_AT_EPOCH":"5607","RA_OF_ASC_NODE":"259.5885","MEAN_ELEMENT_THEORY":"SGP4","TIME_SYSTEM":"UTC","MEAN_MOTION_DOT":"0.00018488","NORAD_CAT_ID":"51973","SEMIMAJOR_AXIS":"6927.794","RCS_SIZE":"LARGE","DECAY_DATE":null,"ELEMENT_SET_NO":"999","ARG_OF_PERICENTER":"85.0452","FILE":"3857847","MEAN_ANOMALY":"275.0661","APOAPSIS":"550.401","PERIAPSIS":"548.918","MEAN_MOTION_DDOT":"0.0000000000000","LAUNCH_DATE":"2022-03-09","MEAN_MOTION":"15.05602335","PERIOD":"95.643","BSTAR":"0.00128410000000","INCLINATION":"53.2056","ECCENTRICITY":"0.00010700","OBJECT_TYPE":"PAYLOAD"},{"COUNTRY_CODE":"US","REF_FRAME":"TEME","EPOCH":"2023-03-11T21:08:48.248736","TLE_LINE1":"1 51974U 22025U   23070.88111399  .00001882  00000-0  14819-3 0  9994","TLE_LINE2":"2 51974  53.2117 259.5981 0001342 103.5238 256.5903 15.05603874 56064","EPHEMERIS_TYPE":"0","OBJECT_NAME":"STARLINK-3672","OBJECT_ID":"2022-025U","GP_ID":"227890722","CLASSIFICATION_TYPE":"U","CENTER_NAME":"EARTH","REV_AT_EPOCH":"5606","SITE":"AFETR","RA_OF_ASC_NODE":"259.5981","MEAN_MOTION_DOT":"0.00001882","TIME_SYSTEM":"UTC","NORAD_CAT_ID":"51974","SEMIMAJOR_AXIS":"6927.790","MEAN_ELEMENT_THEORY":"SGP4","RCS_SIZE":"LARGE","DECAY_DATE":null,"MEAN_ANOMALY":"256.5903","FILE":"3857847","APOAPSIS":"550.584","ELEMENT_SET_NO":"999","ARG_OF_PERICENTER":"103.5238","PERIAPSIS":"548.725","MEAN_MOTION_DDOT":"0.0000000000000","MEAN_MOTION":"15.05603874","PERIOD":"95.643","LAUNCH_DATE":"2022-03-09","BSTAR":"0.00014819000000","INCLINATION":"53.2117","ECCENTRICITY":"0.00013420","OBJECT_TYPE":"PAYLOAD"}];
